[{"OBJECT_NAME":"ONEWEB-0216","OBJECT_ID":"2021-045AL","EPOCH":"2026-01-13T04:26:46.633344","MEAN_MOTION":13.15549574,"ECCENTRICITY":0.00017544,"INCLINATION":87.9009,"RA_OF_ASC_NODE":290.1326,"ARG_OF_PERICENTER":69.8537,"MEAN_ANOMALY":290.2782,"EPHEMERIS_TYPE":0,"CLASSIFICATION_TYPE":"U","NORAD_CAT_ID":48801,"ELEMENT_SET_NO":999,"REV_AT_EPOCH":22392,"BSTAR":-8.9691648e-5,"MEAN_MOTION_DOT":-2.1e-7,"MEAN_MOTION_DDOT":0},{"OBJECT_NAME":"ONEWEB-0239","OBJECT_ID":"2021-045AM","EPOCH":"2026-01-13T04:33:36.208224","MEAN_MOTION":13.15546986,"ECCENTRICITY":9.873e-5,"INCLINATION":87.9007,"RA_OF_ASC_NODE":290.1458,"ARG_OF_PERICENTER":48.4164,"MEAN_ANOMALY":311.7051,"EPHEMERIS_TYPE":0,"CLASSIFICATION_TYPE":"U","NORAD_CAT_ID":48802,"ELEMENT_SET_NO":999,"REV_AT_EPOCH":22396,"BSTAR":4.3257133e-5,"MEAN_MOTION_DOT":2.9e-7,"MEAN_MOTION_DDOT":0},{"OBJECT_NAME":"ONEWEB-0249","OBJECT_ID":"2021-060A","EPOCH":"2026-01-13T04:05:13.602912","MEAN_MOTION":13.16594661,"ECCENTRICITY":0.0001417,"INCLINATION":87.9034,"RA_OF_ASC_NODE":259.6434,"ARG_OF_PERICENTER":75.3806,"MEAN_ANOMALY":284.7482,"EPHEMERIS_TYPE":0,"CLASSIFICATION_TYPE":"U","NORAD_CAT_ID":48967,"ELEMENT_SET_NO":999,"REV_AT_EPOCH":21921,"BSTAR":-3.789071e-6,"MEAN_MOTION_DOT":1.1e-7,"MEAN_MOTION_DDOT":0},{"OBJECT_NAME":"ONEWEB-0250","OBJECT_ID":"2021-060B","EPOCH":"2026-01-13T03:29:09.085920","MEAN_MOTION":13.2582336,"ECCENTRICITY":0.00010238,"INCLINATION":87.9028,"RA_OF_ASC_NODE":257.9109,"ARG_OF_PERICENTER":121.6256,"MEAN_ANOMALY":238.498,"EPHEMERIS_TYPE":0,"CLASSIFICATION_TYPE":"U","NORAD_CAT_ID":48968,"ELEMENT_SET_NO":999,"REV_AT_EPOCH":21967,"BSTAR":0.00019092924,"MEAN_MOTION_DOT":9.7e-7,"MEAN_MOTION_DDOT":0},{"OBJECT_NAME":"ONEWEB-0252","OBJECT_ID":"2021-060D","EPOCH":"2026-01-13T04:50:48.684768","MEAN_MOTION":13.16593152,"ECCENTRICITY":0.00016528,"INCLINATION":87.9028,"RA_OF_ASC_NODE":259.6304,"ARG_OF_PERICENTER":70.9356,"MEAN_ANOMALY":289.1954,"EPHEMERIS_TYPE":0,"CLASSIFICATION_TYPE":"U","NORAD_CAT_ID":48970,"ELEMENT_SET_NO":999,"REV_AT_EPOCH":21926,"BSTAR":0.00028386468,"MEAN_MOTION_DOT":1.21e-6,"MEAN_MOTION_DDOT":0},{"OBJECT_NAME":"ONEWEB-0253","OBJECT_ID":"2021-060E","EPOCH":"2026-01-13T04:34:52.263552","MEAN_MOTION":13.16594986,"ECCENTRICITY":0.00013802,"INCLINATION":87.903,"RA_OF_ASC_NODE":259.6376,"ARG_OF_PERICENTER":71.8793,"MEAN_ANOMALY":288.2488,"EPHEMERIS_TYPE":0,"CLASSIFICATION_TYPE":"U","NORAD_CAT_ID":48971,"ELEMENT_SET_NO":999,"REV_AT_EPOCH":21919,"BSTAR":0.00018619564,"MEAN_MOTION_DOT":8.4e-7,"MEAN_MOTION_DDOT":0},{"OBJECT_NAME":"ONEWEB-0254","OBJECT_ID":"2021-060F","EPOCH":"2026-01-13T04:48:31.857408","MEAN_MOTION":13.16596134,"ECCENTRICITY":0.00011376,"INCLINATION":87.9033,"RA_OF_ASC_NODE":259.6286,"ARG_OF_PERICENTER":71.3148,"MEAN_ANOMALY":288.8107,"EPHEMERIS_TYPE":0,"CLASSIFICATION_TYPE":"U","NORAD_CAT_ID":48972,"ELEMENT_SET_NO":999,"REV_AT_EPOCH":21919,"BSTAR":0.00031001623,"MEAN_MOTION_DOT":1.31e-6,"MEAN_MOTION_DDOT":0},{"OBJECT_NAME":"ONEWEB-0255","OBJECT_ID":"2021-060G","EPOCH":"2026-01-13T03:53:49.974144","MEAN_MOTION":13.16594914,"ECCENTRICITY":0.00012896,"INCLINATION":87.903,"RA_OF_ASC_NODE":259.649,"ARG_OF_PERICENTER":72.262,"MEAN_ANOMALY":287.8651,"EPHEMERIS_TYPE":0,"CLASSIFICATION_TYPE":"U","NORAD_CAT_ID":48973,"ELEMENT_SET_NO":999,"REV_AT_EPOCH":21926,"BSTAR":-6.1754077e-5,"MEAN_MOTION_DOT":-1.1e-7,"MEAN_MOTION_DDOT":0},{"OBJECT_NAME":"ONEWEB-0256","OBJECT_ID":"2021-060H","EPOCH":"2026-01-13T04:31:26.044032","MEAN_MOTION":13.16592831,"ECCENTRICITY":0.000165,"INCLINATION":87.9022,"RA_OF_ASC_NODE":259.6509,"ARG_OF_PERICENTER":77.7739,"MEAN_ANOMALY":282.3577,"EPHEMERIS_TYPE":0,"CLASSIFICATION_TYPE":"U","NORAD_CAT_ID":48974,"ELEMENT_SET_NO":999,"REV_AT_EPOCH":21923,"BSTAR":9.0015639e-5,"MEAN_MOTION_DOT":4.7e-7,"MEAN_MOTION_DDOT":0},{"OBJECT_NAME":"ONEWEB-0257","OBJECT_ID":"2021-060J","EPOCH":"2026-01-13T03:28:44.632992","MEAN_MOTION":13.1659492,"ECCENTRICITY":0.00014277,"INCLINATION":87.9034,"RA_OF_ASC_NODE":259.6412,"ARG_OF_PERICENTER":70.6412,"MEAN_ANOMALY":289.4873,"EPHEMERIS_TYPE":0,"CLASSIFICATION_TYPE":"U","NORAD_CAT_ID":48975,"ELEMENT_SET_NO":999,"REV_AT_EPOCH":21918,"BSTAR":0.00021722518,"MEAN_MOTION_DOT":9.6e-7,"MEAN_MOTION_DDOT":0},{"OBJECT_NAME":"ONEWEB-0258","OBJECT_ID":"2021-060K","EPOCH":"2026-01-13T03:31:01.585632","MEAN_MOTION":13.16595167,"ECCENTRICITY":0.00014324,"INCLINATION":87.9027,"RA_OF_ASC_NODE":259.6543,"ARG_OF_PERICENTER":80.8004,"MEAN_ANOMALY":279.3289,"EPHEMERIS_TYPE":0,"CLASSIFICATION_TYPE":"U","NORAD_CAT_ID":48976,"ELEMENT_SET_NO":999,"REV_AT_EPOCH":21919,"BSTAR":7.6621672e-5,"MEAN_MOTION_DOT":4.2e-7,"MEAN_MOTION_DDOT":0},{"OBJECT_NAME":"ONEWEB-0259","OBJECT_ID":"2021-060L","EPOCH":"2026-01-13T05:11:20.483520","MEAN_MOTION":13.16594908,"ECCENTRICITY":0.00013264,"INCLINATION":87.9035,"RA_OF_ASC_NODE":259.6366,"ARG_OF_PERICENTER":74.8537,"MEAN_ANOMALY":285.2741,"EPHEMERIS_TYPE":0,"CLASSIFICATION_TYPE":"U","NORAD_CAT_ID":48977,"ELEMENT_SET_NO":999,"REV_AT_EPOCH":21923,"BSTAR":0.000229869,"MEAN_MOTION_DOT":1.01e-6,"MEAN_MOTION_DDOT":0},{"OBJECT_NAME":"ONEWEB-0260","OBJECT_ID":"2021-060M","EPOCH":"2026-01-13T04:58:47.464320","MEAN_MOTION":13.16593149,"ECCENTRICITY":0.00018668,"INCLINATION":87.902,"RA_OF_ASC_NODE":259.6486,"ARG_OF_PERICENTER":71.2756,"MEAN_ANOMALY":288.8578,"EPHEMERIS_TYPE":0,"CLASSIFICATION_TYPE":"U","NORAD_CAT_ID":48978,"ELEMENT_SET_NO":999,"REV_AT_EPOCH":21921,"BSTAR":0.00045974404,"MEAN_MOTION_DOT":1.89e-6,"MEAN_MOTION_DDOT":0},{"OBJECT_NAME":"ONEWEB-0261","OBJECT_ID":"2021-060N","EPOCH":"2026-01-13T04:15:27.775584","MEAN_MOTION":13.16595314,"ECCENTRICITY":0.00013757,"INCLINATION":87.9021,"RA_OF_ASC_NODE":259.6566,"ARG_OF_PERICENTER":61.9093,"MEAN_ANOMALY":298.2177,"EPHEMERIS_TYPE":0,"CLASSIFICATION_TYPE":"U","NORAD_CAT_ID":48979,"ELEMENT_SET_NO":999,"REV_AT_EPOCH":21926,"BSTAR":-0.00048299915,"MEAN_MOTION_DOT":-1.72e-6,"MEAN_MOTION_DDOT":0},{"OBJECT_NAME":"ONEWEB-0262","OBJECT_ID":"2021-060P","EPOCH":"2026-01-13T03:46:59.079072","MEAN_MOTION":13.16594583,"ECCENTRICITY":0.00011891,"INCLINATION":87.9035,"RA_OF_ASC_NODE":259.637,"ARG_OF_PERICENTER":80.0837,"MEAN_ANOMALY":280.0428,"EPHEMERIS_TYPE":0,"CLASSIFICATION_TYPE":"U","NORAD_CAT_ID":48980,"ELEMENT_SET_NO":999,"REV_AT_EPOCH":21922,"BSTAR":5.6696041e-5,"MEAN_MOTION_DOT":3.5e-7,"MEAN_MOTION_DDOT":0},{"OBJECT_NAME":"ONEWEB-0263","OBJECT_ID":"2021-060Q","EPOCH":"2026-01-13T04:32:34.756224","MEAN_MOTION":13.16594878,"ECCENTRICITY":0.00012679,"INCLINATION":87.9026,"RA_OF_ASC_NODE":259.6434,"ARG_OF_PERICENTER":63.863,"MEAN_ANOMALY":296.2631,"EPHEMERIS_TYPE":0,"CLASSIFICATION_TYPE":"U","NORAD_CAT_ID":48981,"ELEMENT_SET_NO":999,"REV_AT_EPOCH":21919,"BSTAR":0.00011048503,"MEAN_MOTION_DOT":5.5e-7,"MEAN_MOTION_DDOT":0},{"OBJECT_NAME":"ONEWEB-0264","OBJECT_ID":"2021-060R","EPOCH":"2026-01-13T03:36:42.955488","MEAN_MOTION":13.16595834,"ECCENTRICITY":0.00015717,"INCLINATION":87.9028,"RA_OF_ASC_NODE":259.6543,"ARG_OF_PERICENTER":68.3308,"MEAN_ANOMALY":291.799,"EPHEMERIS_TYPE":0,"CLASSIFICATION_TYPE":"U","NORAD_CAT_ID":48982,"ELEMENT_SET_NO":999,"REV_AT_EPOCH":21919,"BSTAR":9.966675e-6,"MEAN_MOTION_DOT":1.7e-7,"MEAN_MOTION_DDOT":0}]
