ONEWEB-0216             
1 48801U 21045AL  26013.18526196 -.00000021  00000+0 -89692-4 0  9995
2 48801  87.9009 290.1326 0001754  69.8537 290.2782 13.15549574223926
ONEWEB-0239             
1 48802U 21045AM  26013.19000241  .00000029  00000+0  43257-4 0  9998
2 48802  87.9007 290.1458 0000987  48.4164 311.7051 13.15546986223963
ONEWEB-0249             
1 48967U 21060A   26013.17029633  .00000011  00000+0 -37891-5 0  9991
2 48967  87.9034 259.6434 0001417  75.3806 284.7482 13.16594661219214
ONEWEB-0250             
1 48968U 21060B   26013.14524405  .00000097  00000+0  19093-3 0  9991
2 48968  87.9028 257.9109 0001023 121.6256 238.4980 13.25823360219675
ONEWEB-0252             
1 48970U 21060D   26013.20195237  .00000121  00000+0  28386-3 0  9991
2 48970  87.9028 259.6304 0001652  70.9356 289.1954 13.16593152219261
ONEWEB-0253             
1 48971U 21060E   26013.19088268  .00000084  00000+0  18620-3 0  9993
2 48971  87.9030 259.6376 0001380  71.8793 288.2488 13.16594986219197
ONEWEB-0254             
1 48972U 21060F   26013.20036872  .00000131  00000+0  31002-3 0  9992
2 48972  87.9033 259.6286 0001137  71.3148 288.8107 13.16596134219191
ONEWEB-0255             
1 48973U 21060G   26013.16238396 -.00000011  00000+0 -61754-4 0  9990
2 48973  87.9030 259.6490 0001289  72.2620 287.8651 13.16594914219264
ONEWEB-0256             
1 48974U 21060H   26013.18849588  .00000047  00000+0  90016-4 0  9994
2 48974  87.9022 259.6509 0001650  77.7739 282.3577 13.16592831219230
ONEWEB-0257             
1 48975U 21060J   26013.14496103  .00000096  00000+0  21723-3 0  9994
2 48975  87.9034 259.6412 0001427  70.6412 289.4873 13.16594920219181
ONEWEB-0258             
1 48976U 21060K   26013.14654613  .00000042  00000+0  76622-4 0  9997
2 48976  87.9027 259.6543 0001432  80.8004 279.3289 13.16595167219199
ONEWEB-0259             
1 48977U 21060L   26013.21620930  .00000101  00000+0  22987-3 0  9991
2 48977  87.9035 259.6366 0001326  74.8537 285.2741 13.16594908219234
ONEWEB-0260             
1 48978U 21060M   26013.20749380  .00000189  00000+0  45974-3 0  9999
2 48978  87.9020 259.6486 0001866  71.2756 288.8578 13.16593149219216
ONEWEB-0261             
1 48979U 21060N   26013.17740481 -.00000172  00000+0 -48300-3 0  9999
2 48979  87.9021 259.6566 0001375  61.9093 298.2177 13.16595314219263
ONEWEB-0262             
1 48980U 21060P   26013.15762823  .00000035  00000+0  56696-4 0  9997
2 48980  87.9035 259.6370 0001189  80.0837 280.0428 13.16594583219225
ONEWEB-0263             
1 48981U 21060Q   26013.18929116  .00000055  00000+0  11049-3 0  9995
2 48981  87.9026 259.6434 0001267  63.8630 296.2631 13.16594878219192
ONEWEB-0264             
1 48982U 21060R   26013.15049717  .00000017  00000+0  99667-5 0  9995
2 48982  87.9028 259.6543 0001571  68.3308 291.7990 13.16595834219197
